{
  "links" : {
    "next" : "https://api.nasa.gov/neo/rest/v1/feed?start_date=2014-08-23&end_date=2014-08-23&detailed=true&api_key=t0TVs3DtDT2H8Oy2Zy8m2eVrNsAVKAexjcZXUckd",
    "prev" : "https://api.nasa.gov/neo/rest/v1/feed?start_date=2014-08-21&end_date=2014-08-21&detailed=true&api_key=t0TVs3DtDT2H8Oy2Zy8m2eVrNsAVKAexjcZXUckd",
    "self" : "https://api.nasa.gov/neo/rest/v1/feed?start_date=2014-08-22&end_date=2014-08-22&detailed=true&api_key=t0TVs3DtDT2H8Oy2Zy8m2eVrNsAVKAexjcZXUckd"
  },
  "element_count" : 7,
  "near_earth_objects" : {
    "2014-08-22" : [ {
      "links" : {
        "self" : "https://api.nasa.gov/neo/rest/v1/neo/3177204?api_key=t0TVs3DtDT2H8Oy2Zy8m2eVrNsAVKAexjcZXUckd"
      },
      "neo_reference_id" : "3177204",
      "name" : "(2004 FW1)",
      "nasa_jpl_url" : "http://ssd.jpl.nasa.gov/sbdb.cgi?sstr=3177204",
      "absolute_magnitude_h" : 21.0,
      "estimated_diameter" : {
        "kilometers" : {
          "estimated_diameter_min" : 0.1677084622,
          "estimated_diameter_max" : 0.3750075218
        },
        "meters" : {
          "estimated_diameter_min" : 167.7084621628,
          "estimated_diameter_max" : 375.0075217981
        },
        "miles" : {
          "estimated_diameter_min" : 0.1042091748,
          "estimated_diameter_max" : 0.2330187988
        },
        "feet" : {
          "estimated_diameter_min" : 550.2246310023,
          "estimated_diameter_max" : 1230.3396778159
        }
      },
      "is_potentially_hazardous_asteroid" : true,
      "close_approach_data" : [ {
        "close_approach_date" : "2014-08-22",
        "epoch_date_close_approach" : 1408690800000,
        "relative_velocity" : {
          "kilometers_per_second" : "21.860944078",
          "kilometers_per_hour" : "78699.3986809174",
          "miles_per_hour" : "48900.7458081511"
        },
        "miss_distance" : {
          "astronomical" : "0.4980472726",
          "lunar" : "193.7403869629",
          "kilometers" : "74506808",
          "miles" : "46296384"
        },
        "orbiting_body" : "Earth"
      } ],
      "orbital_data" : {
        "orbit_id" : "16",
        "orbit_determination_date" : "2017-04-06 09:13:05",
        "orbit_uncertainty" : "1",
        "minimum_orbit_intersection" : ".0475717",
        "jupiter_tisserand_invariant" : "3.993",
        "epoch_osculation" : "2458000.5",
        "eccentricity" : ".7170573031497358",
        "semi_major_axis" : "1.610944879071168",
        "inclination" : "10.16751618237268",
        "ascending_node_longitude" : "194.6650570905592",
        "orbital_period" : "746.8260322305915",
        "perihelion_distance" : ".455805088561519",
        "perihelion_argument" : "91.16516759733652",
        "aphelion_distance" : "2.766084669580817",
        "perihelion_time" : "2458368.463963368635",
        "mean_anomaly" : "182.6266612358687",
        "mean_motion" : ".482039972448156",
        "equinox" : "J2000"
      }
    } ]
  }
}